GLOBALSTAR M063         
1 26081U 00008A   24209.83861009 -.00000046  00000+0  53104-3 0  9993
2 26081  51.9925 245.7833 0004389  53.6571 118.3237 11.86158945119085
GLOBALSTAR M062         
1 26082U 00008B   24210.04621449 -.00000043  00000+0  39697-3 0  9999
2 26082  51.9869 328.9669 0007704 138.6206  41.9548 12.43441048118793
GLOBALSTAR M060         
1 26083U 00008C   24210.23214354 -.00000021  00000+0  69145-3 0  9991
2 26083  51.9994 242.5975 0003581 187.7587 247.3599 12.17637912113072
GLOBALSTAR M064         
1 26084U 00008D   24210.10639994 -.00000066  00000+0  24496-3 0  9998
2 26084  52.0058 347.7252 0002077 137.1946 222.9049 11.88520534128678
GLOBALSTAR M065         
1 31571U 07020A   24210.55363899 -.00000077  00000+0  15022-3 0  9990
2 31571  51.9889 131.2784 0009949 313.5265 217.1034 12.61974901792850
GLOBALSTAR M069         
1 31573U 07020C   24209.97053404 -.00000063  00000+0  23031-3 0  9998
2 31573  51.9935  88.8245 0000835  55.5596  54.9044 12.62244558793531
